              M50 Cartesian                         J2K Cartesian  
    -----------------------------------       --------------------------------
     X    =      -11437620.02                 X    =        -3420165.14
     Y    =      -19083800.92  feet           Y    =        -5855358.22  meter
     Z    =        -484990.36                 Z    =         -164600.13
     XDOT =      13277.436910                 XDOT =        4046.306066
     YDOT =      -8427.076429  feet/sec       YDOT =       -2523.321035  meter/sec
     ZDOT =      19639.612522                 ZDOT =        6005.811439
 
              TDR Cartesian                         TDR Cartesian  
    -----------------------------------       --------------------------------
     X    =      -21894285.48                 X    =        -6673378.21
     Y    =       -3946645.74  feet           Y    =        -1202937.62  meter
     Z    =        -556844.58                 Z    =         -169726.23
     XDOT =       2020.790972                 XDOT =         615.937088
     YDOT =     -13850.024372  feet/sec       YDOT =       -4221.487429  meter/sec
     ZDOT =      19725.463311                 ZDOT =        6012.321217
  
  
    The mean element set is posted at the UTC for which position is
    just north of the next ascending node relative to the above
    vector time
 
 
    TWO LINE MEAN ELEMENT SET
  
    ISS
    1 25544U 98067A   16132.50032951  .00016717  00000-0  10270-3 0  9140
    2 25544  51.6431 241.0555 0001738 104.3293 255.8053 15.54480070 39278
  
  
    Satellite: ISS
    Catalog Number: 25544
    Epoch time:      16132.50032951   =   yrday.fracday
    Element set:     914
    Inclination:       51.6431  deg
    RA of node:       241.0555  deg
    Eccentricity:     .0001738     
    Arg of perigee:   104.3293  deg
    Mean anomaly:     255.8053  deg
    Mean motion:   15.54480070  rev/day
    Decay rate:    1.67170E-04  rev/day^2
    Epoch rev:            3927
    Checksum:              282
 
 
    Coasting Arc #16 (Orbit 3927)
    ---------------------------------------
 
    Vector Time (GMT): 2016/132/13:26:00.000
    Vector Time (MET): N/A
    Weight (LBS)     : 926503.7
 
              M50 Cartesian                         M50 Keplerian  
    -----------------------------------       --------------------------------
     X    =       -4712649.80                 A    =         6785820.98  meter
     Y    =       -4242162.49  meter          E    =           .0006472
     Z    =       -2416227.62                 I    =           51.33310
     XDOT =       1923.621456                 Wp   =           58.86322
     YDOT =      -5163.517546  meter/sec      RA   =          239.74630  deg
     ZDOT =       5327.602474                 TA   =          274.00374
                                              MA   =          274.07772
                                              Ha   =            220.989  n.mi
                                              Hp   =            213.548
 
              M50 Cartesian                         J2K Cartesian  
    -----------------------------------       --------------------------------
     X    =      -15461449.47                 X    =        -4653125.55
     Y    =      -13917855.94  feet           Y    =        -4294529.54  meter
     Z    =       -7927255.98                 Z    =        -2438976.28
     XDOT =       6311.094015                 XDOT =        1955.338866
     YDOT =     -16940.674364  feet/sec       YDOT =       -5141.829249  meter/sec
     ZDOT =      17479.010740                 ZDOT =        5337.023792
 
              TDR Cartesian                         TDR Cartesian  
    -----------------------------------       --------------------------------
     X    =      -18279364.29                 X    =        -5571550.24
     Y    =        9852070.27  feet           Y    =         3002911.02  meter
     Z    =       -8025339.46                 Z    =        -2446123.47
     XDOT =     -13162.311682                 XDOT =       -4011.872601
     YDOT =     -10185.608270  feet/sec       YDOT =       -3104.573401  meter/sec
     ZDOT =      17520.847667                 ZDOT =        5340.354369
  
  
    The mean element set is posted at the UTC for which position is
    just north of the next ascending node relative to the above
    vector time
 
 
    TWO LINE MEAN ELEMENT SET
  
    ISS
    1 25544U 98067A   16132.56461605  .00016717  00000-0  10270-3 0  9159
    2 25544  51.6429 240.7363 0001508 101.1925 258.9398 15.54460902 39289
  
  
    Satellite: ISS
    Catalog Number: 25544
    Epoch time:      16132.56461605   =   yrday.fracday
    Element set:     915
    Inclination:       51.6429  deg
    RA of node:       240.7363  deg
    Eccentricity:     .0001508     
    Arg of perigee:   101.1925  deg
    Mean anomaly:     258.9398  deg
    Mean motion:   15.54460902  rev/day
    Decay rate:    1.67170E-04  rev/day^2
    Epoch rev:            3928
    Checksum:              312
 
             </PRE>
           </TD>
        </TR>
    </TABLE>
    
    <table align="center" border="0" width="600" cellpadding="0" cellspacing="0">
      <tr>
        <td align="center" valign="top"><hr size="1" width="600" noshade="noshade" />
        <font face="Arial,helvetica" size="-2">Curator: <a href="/cgi-bin/comment.cgi?jsc-hsfwebma@mail.nasa.gov">Kim 
          Dismukes</a> | Responsible NASA Official: <a href="/cgi-bin/comment.cgi?jsc-hsfwebma@mail.nasa.gov">Amiko Kauderer</a> | Updated: 06/08/2009<br />
        <a href="http://www.nasa.gov/about/highlights/HP_Privacy.html">Privacy Policy and Important Notices</a></font></td>
      </tr>
    </table>
    </body>
    </html>
